[{"OBJECT_NAME":"ICEYE-X26","OBJECT_ID":"2023-084AF","EPOCH":"2026-03-09T22:36:43.632288","MEAN_MOTION":15.73279775,"ECCENTRICITY":9.181e-5,"INCLINATION":97.5771,"RA_OF_ASC_NODE":224.5701,"ARG_OF_PERICENTER":250.447,"MEAN_ANOMALY":109.6694,"EPHEMERIS_TYPE":0,"CLASSIFICATION_TYPE":"U","NORAD_CAT_ID":56961,"ELEMENT_SET_NO":999,"REV_AT_EPOCH":15354,"BSTAR":0.00052391916,"MEAN_MOTION_DOT":0.00072488,"MEAN_MOTION_DDOT":0},{"OBJECT_NAME":"STARLINK-11452 [DTC]","OBJECT_ID":"2025-004A","EPOCH":"2026-03-09T23:23:28.530528","MEAN_MOTION":15.70864591,"ECCENTRICITY":0.00017061,"INCLINATION":43.0012,"RA_OF_ASC_NODE":68.9872,"ARG_OF_PERICENTER":260.8106,"MEAN_ANOMALY":99.2568,"EPHEMERIS_TYPE":0,"CLASSIFICATION_TYPE":"U","NORAD_CAT_ID":62511,"ELEMENT_SET_NO":999,"REV_AT_EPOCH":6817,"BSTAR":0.0016849422,"MEAN_MOTION_DOT":0.00221851,"MEAN_MOTION_DDOT":0}]
